[{"OBJECT_NAME":"TRANSPORTER-10 OBJECT AW","OBJECT_ID":"2024-043AW","EPOCH":"2026-03-09T22:04:49.515456","MEAN_MOTION":15.70494371,"ECCENTRICITY":0.00039773,"INCLINATION":97.534,"RA_OF_ASC_NODE":220.1774,"ARG_OF_PERICENTER":196.6835,"MEAN_ANOMALY":163.4297,"EPHEMERIS_TYPE":0,"CLASSIFICATION_TYPE":"U","NORAD_CAT_ID":59142,"ELEMENT_SET_NO":999,"REV_AT_EPOCH":11287,"BSTAR":0.00092189633,"MEAN_MOTION_DOT":0.00114165,"MEAN_MOTION_DDOT":0},{"OBJECT_NAME":"STARLINK-11544 [DTC]","OBJECT_ID":"2025-031D","EPOCH":"2026-03-09T20:59:19.898304","MEAN_MOTION":15.7098148,"ECCENTRICITY":0.00027615,"INCLINATION":42.9986,"RA_OF_ASC_NODE":0.151,"ARG_OF_PERICENTER":228.852,"MEAN_ANOMALY":131.2109,"EPHEMERIS_TYPE":0,"CLASSIFICATION_TYPE":"U","NORAD_CAT_ID":62984,"ELEMENT_SET_NO":999,"REV_AT_EPOCH":6274,"BSTAR":0.0017151108,"MEAN_MOTION_DOT":0.00227101,"MEAN_MOTION_DDOT":0}]
